OBJECT C                
1 57582U 23117C   25156.19917285  .00007078  00000+0  27816-3 0  9990
2 57582  97.4449 231.1564 0010295 133.2625 226.9474 15.25943953100840
